NORAD_CAT_ID,OBJECT_NAME,OBJECT_TYPE,EPOCH,MEAN_MOTION,ECCENTRICITY,INCLINATION,RA_OF_ASC_NODE,ARG_OF_PERICENTER,MEAN_ANOMALY,BSTAR,MEAN_MOTION_DOT,MEAN_MOTION_DDOT,TLE_LINE0,TLE_LINE1,TLE_LINE2,SEMIMAJOR_AXIS,PERIOD,APOGEE,PERIGEE,DECAYED
52681.0,STARLINK-4068,PAYLOAD,2024-04-11 02:28:39,15.08834543,0.0001399,53.2182,35.7059,92.5584,267.5568,1.0709e-05,-1.18e-06,0.0,0 STARLINK-4068,1 52681U 22053AB  24102.10323490 -.00000118  00000-0  10709-4 0  9997,2 52681  53.2182  35.7059 0001399  92.5584 267.5568 15.08834543105432,6917.897,95.438,540.73,538.794,0.0
52681.0,STARLINK-4068,PAYLOAD,2024-04-11 05:39:25,15.08834963,0.000135,53.2182,35.1111,91.0723,269.0424,-6.8169e-06,-3.96e-06,0.0,0 STARLINK-4068,1 52681U 22053AB  24102.23571551 -.00000396  00000-0 -68169-5 0  9997,2 52681  53.2182  35.1111 0001350  91.0723 269.0424 15.08834963105840,6917.896,95.438,540.695,538.827,0.0
52681.0,STARLINK-4068,PAYLOAD,2024-04-12 05:30:12,15.08836036,0.0001332,53.2191,30.6513,90.0651,270.0494,6.8672e-05,8.05e-06,0.0,0 STARLINK-4068,1 52681U 22053AB  24103.22931633  .00000805  00000-0  68672-4 0  9999,2 52681  53.2191  30.6513 0001332  90.0651 270.0494 15.08836036105601,6917.893,95.438,540.679,538.836,0.0
52681.0,STARLINK-4068,PAYLOAD,2024-04-13 02:10:13,15.08839269,0.0001295,53.2191,26.7863,91.7042,268.4098,0.00010511,1.385e-05,0.0,0 STARLINK-4068,1 52681U 22053AB  24104.09043576  .00001385  00000-0  10511-3 0  9997,2 52681  53.2191  26.7863 0001295  91.7042 268.4098 15.08839269106125,6917.883,95.438,540.643,538.852,0.0
52681.0,STARLINK-4068,PAYLOAD,2024-04-14 03:36:24,15.08837547,0.0001374,53.22,22.0292,87.1386,272.9764,1.9156e-05,1.7e-07,0.0,0 STARLINK-4068,1 52681U 22053AB  24105.15028335  .00000017  00000-0  19156-4 0  9997,2 52681  53.2200  22.0292 0001374  87.1386 272.9764 15.08837547105899,6917.888,95.438,540.703,538.802,0.0
52681.0,STARLINK-4068,PAYLOAD,2024-04-14 22:41:01,15.08844054,0.0001609,53.2205,18.4644,73.0209,287.096,8.7664e-05,1.108e-05,0.0,0 STARLINK-4068,1 52681U 22053AB  24105.94515913  .00001108  00000-0  87664-4 0  9998,2 52681  53.2205  18.4644 0001609  73.0209 287.0960 15.08844054106407,6917.868,95.437,540.846,538.62,0.0
52681.0,STARLINK-4068,PAYLOAD,2024-04-15 03:27:10,15.0884869,0.0001534,53.2205,17.5687,77.3827,282.7337,0.00011773,1.587e-05,0.0,0 STARLINK-4068,1 52681U 22053AB  24106.14387450  .00001587  00000-0  11773-3 0  9992,2 52681  53.2205  17.5687 0001534  77.3827 282.7337 15.08848690106044,6917.854,95.437,540.78,538.658,0.0
52681.0,STARLINK-4068,PAYLOAD,2024-04-16 00:07:11,15.08846367,0.0001362,53.2201,13.7006,93.2031,266.9117,9.6206e-05,1.244e-05,0.0,0 STARLINK-4068,1 52681U 22053AB  24107.00499376  .00001244  00000-0  96206-4 0  9994,2 52681  53.2201  13.7006 0001362  93.2031 266.9117 15.08846367106179,6917.861,95.437,540.668,538.784,0.0
52681.0,STARLINK-4068,PAYLOAD,2024-04-16 11:14:52,15.0885836,0.0001325,53.22,11.6193,106.0706,254.0432,0.0001903,2.743e-05,0.0,0 STARLINK-4068,1 52681U 22053AB  24107.46866128  .00002743  00000-0  19030-3 0  9991,2 52681  53.2200  11.6193 0001325 106.0706 254.0432 15.08858360106245,6917.824,95.436,540.606,538.773,0.0
52681.0,STARLINK-4068,PAYLOAD,2024-04-16 20:47:13,15.08834054,0.0001453,53.2202,9.8342,103.3017,256.8137,-8.3905e-05,-1.623e-05,0.0,0 STARLINK-4068,1 52681U 22053AB  24107.86612395 -.00001623  00000-0 -83905-4 0  9991,2 52681  53.2202   9.8342 0001453 103.3017 256.8137 15.08834054106302,6917.899,95.438,540.769,538.758,0.0
52681.0,STARLINK-4068,PAYLOAD,2024-04-16 22:22:35,15.08837715,0.0001672,53.2198,9.5349,113.6925,246.4243,-5.1103e-05,-1.101e-05,0.0,0 STARLINK-4068,1 52681U 22053AB  24107.93236019 -.00001101  00000-0 -51103-4 0  9990,2 52681  53.2198   9.5349 0001672 113.6925 246.4243 15.08837715106709,6917.887,95.438,540.909,538.596,0.0
52681.0,STARLINK-4068,PAYLOAD,2024-04-17 03:08:44,15.08847136,0.0001295,53.219,8.6449,116.0424,244.0701,4.1795e-05,3.77e-06,0.0,0 STARLINK-4068,1 52681U 22053AB  24108.13107179  .00000377  00000-0  41795-4 0  9995,2 52681  53.2190   8.6449 0001295 116.0424 244.0701 15.08847136106345,6917.859,95.437,540.619,538.828,0.0
52681.0,STARLINK-4068,PAYLOAD,2024-04-17 20:38:00,15.08830863,0.000156,53.2181,5.3703,121.8921,238.2223,-0.00013173,-2.383e-05,0.0,0 STARLINK-4068,1 52681U 22053AB  24108.85972287 -.00002383  00000-0 -13173-3 0  9993,2 52681  53.2181   5.3703 0001560 121.8921 238.2223 15.08830863106458,6917.908,95.438,540.853,538.694,0.0
52681.0,STARLINK-4068,PAYLOAD,2024-04-17 23:48:46,15.08826657,0.0001129,53.2175,4.7756,101.4679,258.644,-0.00016399,-2.896e-05,0.0,0 STARLINK-4068,1 52681U 22053AB  24108.99220674 -.00002896  00000-0 -16399-3 0  9996,2 52681  53.2175   4.7756 0001129 101.4679 258.6440 15.08826657106865,6917.921,95.438,540.567,539.005,0.0
52681.0,STARLINK-4068,PAYLOAD,2024-04-18 22:04:11,15.08829115,0.0001457,53.2178,0.6187,75.0179,285.0974,0.00021891,3.197e-05,0.0,0 STARLINK-4068,1 52681U 22053AB  24109.91957638  .00003197  00000-0  21891-3 0  9992,2 52681  53.2178   0.6187 0001457  75.0179 285.0974 15.08829115107001,6917.914,95.438,540.787,538.771,0.0
52681.0,STARLINK-4068,PAYLOAD,2024-04-18 23:39:34,15.08838177,0.0001484,53.2186,0.3227,96.04,264.0762,0.00019999,2.896e-05,0.0,0 STARLINK-4068,1 52681U 22053AB  24109.98581150  .00002896  00000-0  19999-3 0  9992,2 52681  53.2186   0.3227 0001484  96.0400 264.0762 15.08838177106629,6917.886,95.438,540.778,538.724,0.0
52681.0,STARLINK-4068,PAYLOAD,2024-04-19 20:19:34,15.08853234,0.0001523,53.2185,356.4551,88.5488,271.5678,0.00049648,7.625e-05,0.0,0 STARLINK-4068,1 52681U 22053AB  24110.84692574  .00007625  00000-0  49648-3 0  9991,2 52681  53.2185 356.4551 0001523  88.5488 271.5678 15.08853234106753,6917.84,95.437,540.759,538.651,0.0
52681.0,STARLINK-4068,PAYLOAD,2024-04-19 21:54:57,15.08861606,0.000154,53.2183,356.1571,85.7542,274.3626,0.00062258,9.64e-05,0.0,0 STARLINK-4068,1 52681U 22053AB  24110.91316397  .00009640  00000-0  62258-3 0  9996,2 52681  53.2183 356.1571 0001540  85.7542 274.3626 15.08861606107150,6917.814,95.436,540.745,538.614,0.0
52681.0,STARLINK-4068,PAYLOAD,2024-04-20 01:05:43,15.08875374,0.0001588,53.2191,355.5652,94.8193,265.2981,0.00084058,0.00013128,0.0,0 STARLINK-4068,1 52681U 22053AB  24111.04563874  .00013128  00000-0  84058-3 0  9993,2 52681  53.2191 355.5652 0001588  94.8193 265.2981 15.08875374106785,6917.772,95.435,540.736,538.539,0.0
52681.0,STARLINK-4068,PAYLOAD,2024-04-20 20:10:21,15.08841648,0.0001468,53.2183,351.9954,101.543,258.5727,-0.00011607,-2.135e-05,0.0,0 STARLINK-4068,1 52681U 22053AB  24111.84052229 -.00002135  00000-0 -11607-3 0  9996,2 52681  53.2183 351.9954 0001468 101.5430 258.5727 15.08841648106902,6917.875,95.437,540.756,538.725,0.0
52681.0,STARLINK-4068,PAYLOAD,2024-04-20 21:45:44,15.08826986,0.0001942,53.2179,351.6974,120.427,239.6914,-0.00093121,-0.00015073,0.0,0 STARLINK-4068,1 52681U 22053AB  24111.90676101 -.00015073  00000-0 -93121-3 0  9990,2 52681  53.2179 351.6974 0001942 120.4270 239.6914 15.08826986107306,6917.92,95.438,541.129,538.442,0.0
52681.0,STARLINK-4068,PAYLOAD,2024-04-21 00:56:30,15.08836879,0.000146,53.218,351.1032,110.2559,249.859,-0.00017148,-3.016e-05,0.0,0 STARLINK-4068,1 52681U 22053AB  24112.03924387 -.00003016  00000-0 -17148-3 0  9996,2 52681  53.2180 351.1032 0001460 110.2559 249.8590 15.08836879107327,6917.89,95.438,540.765,538.745,0.0
52681.0,STARLINK-4068,PAYLOAD,2024-04-21 20:01:08,15.0883233,0.0001672,53.2173,347.5335,125.9082,234.2066,0.00044187,6.75e-05,0.0,0 STARLINK-4068,1 52681U 22053AB  24112.83413181  .00006750  00000-0  44187-3 0  9998,2 52681  53.2173 347.5335 0001672 125.9082 234.2066 15.08832330107057,6917.904,95.438,540.926,538.612,0.0
52681.0,STARLINK-4068,PAYLOAD,2024-04-21 21:36:32,15.08833622,0.0001677,53.2174,347.2363,122.019,238.0965,0.00053324,8.207e-05,0.0,0 STARLINK-4068,1 52681U 22053AB  24112.90037253  .00008207  00000-0  53324-3 0  9990,2 52681  53.2174 347.2363 0001677 122.0190 238.0965 15.08833622107458,6917.9,95.438,540.925,538.605,0.0
52681.0,STARLINK-4068,PAYLOAD,2024-04-22 00:47:18,15.08840873,0.0001425,53.2178,346.6428,102.3027,257.8124,0.00060866,9.412e-05,0.0,0 STARLINK-4068,1 52681U 22053AB  24113.03285327  .00009412  00000-0  60866-3 0  9990,2 52681  53.2178 346.6428 0001425 102.3027 257.8124 15.08840873107472,6917.878,95.437,540.729,538.757,0.0
52681.0,STARLINK-4068,PAYLOAD,2024-04-22 21:27:19,15.08843258,0.000123,53.2175,342.7778,107.8545,252.2582,0.00038433,5.835e-05,0.0,0 STARLINK-4068,1 52681U 22053AB  24113.89397286  .00005835  00000-0  38433-3 0  9992,2 52681  53.2175 342.7778 0001230 107.8545 252.2582 15.08843258107605,6917.87,95.437,540.586,538.885,0.0
52681.0,STARLINK-4068,PAYLOAD,2024-04-23 00:38:05,15.08835321,0.0001496,53.2172,342.1846,59.5749,300.5391,0.00022107,3.232e-05,0.0,0 STARLINK-4068,1 52681U 22053AB  24114.02645706  .00003232  00000-0  22107-3 0  9991,2 52681  53.2172 342.1846 0001496  59.5749 300.5391 15.08835321107231,6917.895,95.438,540.795,538.725,0.0
52681.0,STARLINK-4068,PAYLOAD,2024-04-23 21:18:06,15.08838581,0.000136,53.2171,338.321,63.536,296.5772,0.00018269,2.621e-05,0.0,0 STARLINK-4068,1 52681U 22053AB  24114.88757982  .00002621  00000-0  18269-3 0  9990,2 52681  53.2171 338.3210 0001360  63.5360 296.5772 15.08838581107751,6917.885,95.438,540.691,538.809,0.0
52681.0,STARLINK-4068,PAYLOAD,2024-04-24 00:28:52,15.08847262,0.0001833,53.2183,337.7165,59.7392,300.3781,0.00035159,5.313e-05,0.0,0 STARLINK-4068,1 52681U 22053AB  24115.02005774  .00005313  00000-0  35159-3 0  9990,2 52681  53.2183 337.7165 0001833  59.7392 300.3781 15.08847262107775,6917.858,95.437,540.991,538.455,0.0
52681.0,STARLINK-4068,PAYLOAD,2024-04-24 21:08:53,15.08843067,0.0001359,53.2197,333.8447,74.5017,285.6125,0.00016057,2.269e-05,0.0,0 STARLINK-4068,1 52681U 22053AB  24115.88117750  .00002269  00000-0  16057-3 0  9995,2 52681  53.2197 333.8447 0001359  74.5017 285.6125 15.08843067107510,6917.871,95.437,540.676,538.796,0.0
